[{"OBJECT_NAME":"STARLINK-2266","OBJECT_ID":"2021-024W","EPOCH":"2026-03-09T22:41:07.759680","MEAN_MOTION":15.30173039,"ECCENTRICITY":9.263e-5,"INCLINATION":53.157,"RA_OF_ASC_NODE":305.5637,"ARG_OF_PERICENTER":78.9205,"MEAN_ANOMALY":281.19,"EPHEMERIS_TYPE":0,"CLASSIFICATION_TYPE":"U","NORAD_CAT_ID":47997,"ELEMENT_SET_NO":999,"REV_AT_EPOCH":27502,"BSTAR":-0.00021735375,"MEAN_MOTION_DOT":-6.785e-5,"MEAN_MOTION_DDOT":0},{"OBJECT_NAME":"JILIN-1 GAOFEN 03D50","OBJECT_ID":"2022-167J","EPOCH":"2026-03-09T22:35:59.947584","MEAN_MOTION":15.32279726,"ECCENTRICITY":0.00065764,"INCLINATION":97.6731,"RA_OF_ASC_NODE":232.9458,"ARG_OF_PERICENTER":101.1473,"MEAN_ANOMALY":259.0507,"EPHEMERIS_TYPE":0,"CLASSIFICATION_TYPE":"U","NORAD_CAT_ID":54690,"ELEMENT_SET_NO":999,"REV_AT_EPOCH":18014,"BSTAR":0.00049467973,"MEAN_MOTION_DOT":0.00015359,"MEAN_MOTION_DDOT":0}]
